{
  "links" : {
    "next" : "https://api.nasa.gov/neo/rest/v1/feed?start_date=2012-10-23&end_date=2012-10-23&detailed=true&api_key=t0TVs3DtDT2H8Oy2Zy8m2eVrNsAVKAexjcZXUckd",
    "prev" : "https://api.nasa.gov/neo/rest/v1/feed?start_date=2012-10-21&end_date=2012-10-21&detailed=true&api_key=t0TVs3DtDT2H8Oy2Zy8m2eVrNsAVKAexjcZXUckd",
    "self" : "https://api.nasa.gov/neo/rest/v1/feed?start_date=2012-10-22&end_date=2012-10-22&detailed=true&api_key=t0TVs3DtDT2H8Oy2Zy8m2eVrNsAVKAexjcZXUckd"
  },
  "element_count" : 12,
  "near_earth_objects" : {
    "2012-10-22" : [ {
      "links" : {
        "self" : "https://api.nasa.gov/neo/rest/v1/neo/3612646?api_key=t0TVs3DtDT2H8Oy2Zy8m2eVrNsAVKAexjcZXUckd"
      },
      "neo_reference_id" : "3612646",
      "name" : "(2012 US18)",
      "nasa_jpl_url" : "http://ssd.jpl.nasa.gov/sbdb.cgi?sstr=3612646",
      "absolute_magnitude_h" : 28.6,
      "estimated_diameter" : {
        "kilometers" : {
          "estimated_diameter_min" : 0.0050647146,
          "estimated_diameter_max" : 0.0113250461
        },
        "meters" : {
          "estimated_diameter_min" : 5.0647145883,
          "estimated_diameter_max" : 11.3250461062
        },
        "miles" : {
          "estimated_diameter_min" : 0.0031470668,
          "estimated_diameter_max" : 0.0070370552
        },
        "feet" : {
          "estimated_diameter_min" : 16.61651821,
          "estimated_diameter_max" : 37.155664267
        }
      },
      "is_potentially_hazardous_asteroid" : false,
      "close_approach_data" : [ {
        "close_approach_date" : "2012-10-22",
        "epoch_date_close_approach" : 1350889200000,
        "relative_velocity" : {
          "kilometers_per_second" : "9.9971065089",
          "kilometers_per_hour" : "35989.5834321237",
          "miles_per_hour" : "22362.5275498104"
        },
        "miss_distance" : {
          "astronomical" : "0.0041664998",
          "lunar" : "1.6207684278",
          "kilometers" : "623299.5",
          "miles" : "387300.34375"
        },
        "orbiting_body" : "Earth"
      } ],
      "orbital_data" : {
        "orbit_id" : "5",
        "orbit_determination_date" : "2017-04-06 08:48:26",
        "orbit_uncertainty" : "7",
        "minimum_orbit_intersection" : ".00403207",
        "jupiter_tisserand_invariant" : "5.251",
        "epoch_osculation" : "2458000.5",
        "eccentricity" : ".3554007495073564",
        "semi_major_axis" : "1.19411912443536",
        "inclination" : "3.543957361829998",
        "ascending_node_longitude" : "205.5512708297873",
        "orbital_period" : "476.6174158445559",
        "perihelion_distance" : ".7697282926099647",
        "perihelion_argument" : "265.9095393948717",
        "aphelion_distance" : "1.618509956260754",
        "perihelion_time" : "2458187.906689114730",
        "mean_anomaly" : "218.4474552576858",
        "mean_motion" : ".7553227977666063",
        "equinox" : "J2000"
      }
    }, {
      "links" : {
        "self" : "https://api.nasa.gov/neo/rest/v1/neo/3612848?api_key=t0TVs3DtDT2H8Oy2Zy8m2eVrNsAVKAexjcZXUckd"
      },
      "neo_reference_id" : "3612848",
      "name" : "(2012 UF34)",
      "nasa_jpl_url" : "http://ssd.jpl.nasa.gov/sbdb.cgi?sstr=3612848",
      "absolute_magnitude_h" : 24.8,
      "estimated_diameter" : {
        "kilometers" : {
          "estimated_diameter_min" : 0.0291443905,
          "estimated_diameter_max" : 0.0651688382
        },
        "meters" : {
          "estimated_diameter_min" : 29.1443904535,
          "estimated_diameter_max" : 65.1688382168
        },
        "miles" : {
          "estimated_diameter_min" : 0.018109479,
          "estimated_diameter_max" : 0.0404940262
        },
        "feet" : {
          "estimated_diameter_min" : 95.6180819754,
          "estimated_diameter_max" : 213.8085311752
        }
      },
      "is_potentially_hazardous_asteroid" : false,
      "close_approach_data" : [ {
        "close_approach_date" : "2012-10-22",
        "epoch_date_close_approach" : 1350889200000,
        "relative_velocity" : {
          "kilometers_per_second" : "10.3188578457",
          "kilometers_per_hour" : "37147.8882443803",
          "miles_per_hour" : "23082.2531149595"
        },
        "miss_distance" : {
          "astronomical" : "0.007194484",
          "lunar" : "2.7986543179",
          "kilometers" : "1076279.5",
          "miles" : "668769.0625"
        },
        "orbiting_body" : "Earth"
      } ],
      "orbital_data" : {
        "orbit_id" : "6",
        "orbit_determination_date" : "2017-04-06 08:48:23",
        "orbit_uncertainty" : "7",
        "minimum_orbit_intersection" : ".00892726",
        "jupiter_tisserand_invariant" : "2.944",
        "epoch_osculation" : "2458000.5",
        "eccentricity" : ".6594965800361637",
        "semi_major_axis" : "2.82887172227367",
        "inclination" : "4.721539756410628",
        "ascending_node_longitude" : "24.74056005908861",
        "orbital_period" : "1737.874090616122",
        "perihelion_distance" : ".9632404960731722",
        "perihelion_argument" : "29.87053265272296",
        "aphelion_distance" : "4.694502948474168",
        "perihelion_time" : "2457978.605784066530",
        "mean_anomaly" : "4.535379046507758",
        "mean_motion" : ".2071496444672643",
        "equinox" : "J2000"
      }
    }, {
      "links" : {
        "self" : "https://api.nasa.gov/neo/rest/v1/neo/3761030?api_key=t0TVs3DtDT2H8Oy2Zy8m2eVrNsAVKAexjcZXUckd"
      },
      "neo_reference_id" : "3761030",
      "name" : "(2016 TQ56)",
      "nasa_jpl_url" : "http://ssd.jpl.nasa.gov/sbdb.cgi?sstr=3761030",
      "absolute_magnitude_h" : 24.0,
      "estimated_diameter" : {
        "kilometers" : {
          "estimated_diameter_min" : 0.0421264611,
          "estimated_diameter_max" : 0.0941976306
        },
        "meters" : {
          "estimated_diameter_min" : 42.1264610556,
          "estimated_diameter_max" : 94.1976305719
        },
        "miles" : {
          "estimated_diameter_min" : 0.0261761612,
          "estimated_diameter_max" : 0.0585316759
        },
        "feet" : {
          "estimated_diameter_min" : 138.2101784897,
          "estimated_diameter_max" : 309.0473542854
        }
      },
      "is_potentially_hazardous_asteroid" : false,
      "close_approach_data" : [ {
        "close_approach_date" : "2012-10-22",
        "epoch_date_close_approach" : 1350889200000,
        "relative_velocity" : {
          "kilometers_per_second" : "16.319741723",
          "kilometers_per_hour" : "58751.0702026474",
          "miles_per_hour" : "36505.6302600839"
        },
        "miss_distance" : {
          "astronomical" : "0.1984591122",
          "lunar" : "77.2005996704",
          "kilometers" : "29689062",
          "miles" : "18447928"
        },
        "orbiting_body" : "Earth"
      } ],
      "orbital_data" : {
        "orbit_id" : "9",
        "orbit_determination_date" : "2017-04-06 08:23:02",
        "orbit_uncertainty" : "7",
        "minimum_orbit_intersection" : ".0264789",
        "jupiter_tisserand_invariant" : "4.285",
        "epoch_osculation" : "2458000.5",
        "eccentricity" : ".4324546510220908",
        "semi_major_axis" : "1.57750128271364",
        "inclination" : "6.698385823798901",
        "ascending_node_longitude" : "207.0315420007365",
        "orbital_period" : "723.6907280250618",
        "perihelion_distance" : ".8953035160108122",
        "perihelion_argument" : "116.7517754282844",
        "aphelion_distance" : "2.259699049416468",
        "perihelion_time" : "2458352.153221879558",
        "mean_anomaly" : "185.0700817708187",
        "mean_motion" : ".4974500654201183",
        "equinox" : "J2000"
      }
    } ]
  }
}